[{"OBJECT_NAME":"COSMOS 2409","OBJECT_ID":"2004-037B","EPOCH":"2026-03-09T23:45:47.975040","MEAN_MOTION":12.45320946,"ECCENTRICITY":0.00142208,"INCLINATION":82.4869,"RA_OF_ASC_NODE":31.1814,"ARG_OF_PERICENTER":132.9938,"MEAN_ANOMALY":227.2338,"EPHEMERIS_TYPE":0,"CLASSIFICATION_TYPE":"U","NORAD_CAT_ID":28420,"ELEMENT_SET_NO":999,"REV_AT_EPOCH":97520,"BSTAR":-0.00011281678,"MEAN_MOTION_DOT":-6.0e-8,"MEAN_MOTION_DDOT":0},{"OBJECT_NAME":"DELTA 1 DEB","OBJECT_ID":"1973-086ES","EPOCH":"2026-03-09T22:44:07.976256","MEAN_MOTION":12.57177326,"ECCENTRICITY":0.01024954,"INCLINATION":102.3729,"RA_OF_ASC_NODE":202.8489,"ARG_OF_PERICENTER":287.6321,"MEAN_ANOMALY":188.9722,"EPHEMERIS_TYPE":0,"CLASSIFICATION_TYPE":"U","NORAD_CAT_ID":7181,"ELEMENT_SET_NO":999,"REV_AT_EPOCH":39794,"BSTAR":0.001815705,"MEAN_MOTION_DOT":2.6e-6,"MEAN_MOTION_DDOT":0}]
